{
  "norad_id": 63123,
  "name": "STARLINK-32948",
  "history": [
    {
      "epoch": "2026-03-28T19:48:22.695552Z",
      "apogee_km": 483.8765817953363,
      "perigee_km": 482.0642888773664,
      "latitude_deg": 3.0650802673970875e-05,
      "longitude_deg": 141.35521597393165,
      "height_km": 482.62899464056727,
      "semi_major_axis_km": 6861.107435336351,
      "eccentricity": 0.00013207,
      "inclination_deg": 43.0012,
      "raan_deg": 264.6899,
      "arg_perigee_deg": 277.4959,
      "mean_anomaly_deg": 82.5743,
      "mean_motion_rev_day": 15.2760627
    },
    {
      "epoch": "2026-03-30T12:36:27.712800Z",
      "apogee_km": 483.8366468015556,
      "perigee_km": 482.2584371332123,
      "latitude_deg": 4.001334353241275e-05,
      "longitude_deg": -121.94783188691807,
      "height_km": 483.1334836058912,
      "semi_major_axis_km": 6861.184541967384,
      "eccentricity": 0.00011501,
      "inclination_deg": 42.9982,
      "raan_deg": 255.0834,
      "arg_perigee_deg": 246.8854,
      "mean_anomaly_deg": 113.1877,
      "mean_motion_rev_day": 15.27580519
    },
    {
      "epoch": "2026-03-31T19:59:34.963584Z",
      "apogee_km": 484.17115565295717,
      "perigee_km": 481.7039132503687,
      "latitude_deg": 1.0143909609751134e-06,
      "longitude_deg": 118.60116621974134,
      "height_km": 482.4908066063991,
      "semi_major_axis_km": 6861.074534451663,
      "eccentricity": 0.0001798,
      "inclination_deg": 43.0019,
      "raan_deg": 247.7016,
      "arg_perigee_deg": 280.4601,
      "mean_anomaly_deg": 79.6048,
      "mean_motion_rev_day": 15.27617258
    },
    {
      "epoch": "2026-04-01T16:23:36.571488Z",
      "apogee_km": 484.56152101527096,
      "perigee_km": 481.54808557526303,
      "latitude_deg": 3.814198101339825e-07,
      "longitude_deg": 166.9558504483752,
      "height_km": 482.82319695604565,
      "semi_major_axis_km": 6861.191803295266,
      "eccentricity": 0.0002196,
      "inclination_deg": 43.0025,
      "raan_deg": 242.9008,
      "arg_perigee_deg": 270.35,
      "mean_anomaly_deg": 89.71,
      "mean_motion_rev_day": 15.27578094
    },
    {
      "epoch": "2026-04-02T19:04:16.428576Z",
      "apogee_km": 483.8792987901443,
      "perigee_km": 482.02268837908105,
      "latitude_deg": -2.3892350428346884e-05,
      "longitude_deg": 119.41673853789742,
      "height_km": 482.97708715006354,
      "semi_major_axis_km": 6861.087993584612,
      "eccentricity": 0.0001353,
      "inclination_deg": 43.0027,
      "raan_deg": 236.6234,
      "arg_perigee_deg": 254.4277,
      "mean_anomaly_deg": 105.6425,
      "mean_motion_rev_day": 15.27612763
    },
    {
      "epoch": "2026-04-02T19:04:16.430304Z",
      "apogee_km": 483.8792301792646,
      "perigee_km": 482.0227569899607,
      "latitude_deg": -2.464944449030025e-05,
      "longitude_deg": 119.41673051086309,
      "height_km": 482.9770687337512,
      "semi_major_axis_km": 6861.087993584612,
      "eccentricity": 0.00013529,
      "inclination_deg": 43.0027,
      "raan_deg": 236.6234,
      "arg_perigee_deg": 254.4277,
      "mean_anomaly_deg": 105.6425,
      "mean_motion_rev_day": 15.27612763
    },
    {
      "epoch": "2026-04-03T18:36:36.752832Z",
      "apogee_km": 484.1619405538813,
      "perigee_km": 481.66863415265743,
      "latitude_deg": -8.653455258722132e-06,
      "longitude_deg": 119.82695895851487,
      "height_km": 482.4594774076261,
      "semi_major_axis_km": 6861.052287353269,
      "eccentricity": 0.0001817,
      "inclination_deg": 43.0055,
      "raan_deg": 231.085,
      "arg_perigee_deg": 280.7936,
      "mean_anomaly_deg": 79.2711,
      "mean_motion_rev_day": 15.27624688
    },
    {
      "epoch": "2026-04-04T18:08:57.183360Z",
      "apogee_km": 484.4741137327974,
      "perigee_km": 481.45522899739626,
      "latitude_deg": -2.485359643977453e-05,
      "longitude_deg": 120.23410102055968,
      "height_km": 483.15737187946746,
      "semi_major_axis_km": 6861.101671365096,
      "eccentricity": 0.00022,
      "inclination_deg": 43.0039,
      "raan_deg": 225.544,
      "arg_perigee_deg": 254.0392,
      "mean_anomaly_deg": 106.0217,
      "mean_motion_rev_day": 15.27608195
    },
    {
      "epoch": "2026-04-05T08:16:23.553120Z",
      "apogee_km": 483.3726249347337,
      "perigee_km": 482.8292148914761,
      "latitude_deg": 1.9802670628441772e-06,
      "longitude_deg": -95.52679693917665,
      "height_km": 482.874755176447,
      "semi_major_axis_km": 6861.237919913105,
      "eccentricity": 3.96e-05,
      "inclination_deg": 43.0003,
      "raan_deg": 222.223,
      "arg_perigee_deg": 89.7484,
      "mean_anomaly_deg": 270.3413,
      "mean_motion_rev_day": 15.27562693
    },
    {
      "epoch": "2026-04-06T01:32:07.893600Z",
      "apogee_km": 483.84297283249543,
      "perigee_km": 482.33322886130463,
      "latitude_deg": -1.388948580906934e-05,
      "longitude_deg": 0.766094644694748,
      "height_km": 482.94162329636464,
      "semi_major_axis_km": 6861.2251008469,
      "eccentricity": 0.00011002,
      "inclination_deg": 43.0008,
      "raan_deg": 218.1596,
      "arg_perigee_deg": 264.1455,
      "mean_anomaly_deg": 95.9271,
      "mean_motion_rev_day": 15.27566974
    },
    {
      "epoch": "2026-04-07T01:04:26.895936Z",
      "apogee_km": 483.7345561631082,
      "perigee_km": 481.993234135919,
      "latitude_deg": 4.614816622919131e-05,
      "longitude_deg": 1.1828833786901,
      "height_km": 482.492535755521,
      "semi_major_axis_km": 6861.000895149514,
      "eccentricity": 0.0001269,
      "inclination_deg": 43.0021,
      "raan_deg": 212.6222,
      "arg_perigee_deg": 279.799,
      "mean_anomaly_deg": 80.2719,
      "mean_motion_rev_day": 15.27641852
    },
    {
      "epoch": "2026-04-08T08:27:35.031456Z",
      "apogee_km": 484.32541120426777,
      "perigee_km": 481.8032335981534,
      "latitude_deg": -7.159050112224885e-06,
      "longitude_deg": -118.27383586666905,
      "height_km": 482.87316354518407,
      "semi_major_axis_km": 6861.20132240121,
      "eccentricity": 0.0001838,
      "inclination_deg": 43.0037,
      "raan_deg": 205.2384,
      "arg_perigee_deg": 268.5741,
      "mean_anomaly_deg": 91.49,
      "mean_motion_rev_day": 15.27574915
    }
  ]
}